{
  "norad_id": 67431,
  "name": "STARLINK-36443",
  "history": [
    {
      "epoch": "2026-03-28T19:28:06.601728Z",
      "apogee_km": 483.5195001335451,
      "perigee_km": 482.4761959685511,
      "latitude_deg": -2.0528982851276156e-05,
      "longitude_deg": 11.48899211007099,
      "height_km": 482.7007000168041,
      "semi_major_axis_km": 6861.134848051048,
      "eccentricity": 7.603e-05,
      "inclination_deg": 42.9985,
      "raan_deg": 129.7428,
      "arg_perigee_deg": 278.0587,
      "mean_anomaly_deg": 82.0178,
      "mean_motion_rev_day": 15.27597115
    },
    {
      "epoch": "2026-03-30T13:50:20.012928Z",
      "apogee_km": 483.6995074786155,
      "perigee_km": 482.3355099622813,
      "latitude_deg": -1.7116170467193255e-05,
      "longitude_deg": 84.22492668407965,
      "height_km": 482.72649977834595,
      "semi_major_axis_km": 6861.154508720448,
      "eccentricity": 9.94e-05,
      "inclination_deg": 43.0006,
      "raan_deg": 119.7747,
      "arg_perigee_deg": 275.6747,
      "mean_anomaly_deg": 84.3991,
      "mean_motion_rev_day": 15.27590549
    },
    {
      "epoch": "2026-03-30T18:32:48.472800Z",
      "apogee_km": 483.49889635520685,
      "perigee_km": 482.5830663182578,
      "latitude_deg": 3.2018058852123205e-05,
      "longitude_deg": 12.303549702213076,
      "height_km": 482.5325636879184,
      "semi_major_axis_km": 6861.177981336732,
      "eccentricity": 6.674e-05,
      "inclination_deg": 42.998,
      "raan_deg": 118.6652,
      "arg_perigee_deg": 308.3555,
      "mean_anomaly_deg": 51.7237,
      "mean_motion_rev_day": 15.2758271
    }
  ]
}